LEMUR-2-PETERG          
1 42841U 17042S   26068.48235713  .00023240  00000+0  81076-3 0  9993
2 42841  97.3980 253.6596 0003700 341.6938  18.4169 15.29611459473171
STARLINK-2717           
1 48659U 21044X   26068.53433209  .00002476  00000+0  95678-4 0  9991
2 48659  53.1579 114.5637 0001526  77.6748 282.4423 15.30209793263807
